{
  "type": "FeatureCollection",
  "features": [
    {
      "type": "Feature",
      "properties": {
        "norad_id": 66386,
        "name": "STARLINK-35651",
        "group": "last-30-days",
        "lat": 0.5807477019380783,
        "lon": -56.01701457686164,
        "alt_km": 447.8263049395973,
        "timestamp": "2025-12-04T10:51:48.874863+00:00",
        "meta_object_name": "STARLINK-35651",
        "meta_object_id": "2025-257G",
        "meta_epoch": "2025-12-04T04:00:03.000096",
        "meta_mean_motion": 15.39531854,
        "meta_eccentricity": 0.0001491,
        "meta_inclination": 53.1598,
        "meta_ra_of_asc_node": 304.8952,
        "meta_arg_of_pericenter": 70.135,
        "meta_mean_anomaly": 144.9756,
        "meta_ephemeris_type": 0,
        "meta_classification_type": "U",
        "meta_norad_cat_id": 66386,
        "meta_element_set_no": 999,
        "meta_rev_at_epoch": 511,
        "meta_bstar": 0.0022268,
        "meta_mean_motion_dot": 0.00089462,
        "meta_mean_motion_ddot": 0,
        "tle_line1": "1 66386U 25257G   25338.16670139  .00089462  00000+0  22268-2 0  9994",
        "tle_line2": "2 66386  53.1598 304.8952 0001491  70.1350 144.9756 15.39531854  5111"
      },
      "geometry": {
        "type": "Point",
        "coordinates": [
          -56.01701457686164,
          0.5807477019380783
        ]
      }
    },
    {
      "type": "Feature",
      "properties": {
        "norad_id": 66387,
        "name": "STARLINK-35661",
        "group": "last-30-days",
        "lat": 2.0218808892770865,
        "lon": -54.939109426501155,
        "alt_km": 447.88555192706735,
        "timestamp": "2025-12-04T10:51:48.874875+00:00",
        "meta_object_name": "STARLINK-35661",
        "meta_object_id": "2025-257H",
        "meta_epoch": "2025-12-04T04:00:03.000096",
        "meta_mean_motion": 15.39498589,
        "meta_eccentricity": 9.38e-05,
        "meta_inclination": 53.16,
        "meta_ra_of_asc_node": 304.8918,
        "meta_arg_of_pericenter": 73.166,
        "meta_mean_anomaly": 143.7768,
        "meta_ephemeris_type": 0,
        "meta_classification_type": "U",
        "meta_norad_cat_id": 66387,
        "meta_element_set_no": 999,
        "meta_rev_at_epoch": 511,
        "meta_bstar": 0.0019983,
        "meta_mean_motion_dot": 0.00080051,
        "meta_mean_motion_ddot": 0,
        "tle_line1": "1 66387U 25257H   25338.16670139  .00080051  00000+0  19983-2 0  9990",
        "tle_line2": "2 66387  53.1600 304.8918 0000938  73.1660 143.7768 15.39498589  5117"
      },
      "geometry": {
        "type": "Point",
        "coordinates": [
          -54.939109426501155,
          2.0218808892770865
        ]
      }
    },
    {
      "type": "Feature",
      "properties": {
        "norad_id": 66388,
        "name": "STARLINK-35647",
        "group": "last-30-days",
        "lat": 20.16387266449049,
        "lon": -40.52136149755094,
        "alt_km": 439.2709160574077,
        "timestamp": "2025-12-04T10:51:48.874886+00:00",
        "meta_object_name": "STARLINK-35647",
        "meta_object_id": "2025-257J",
        "meta_epoch": "2025-12-04T04:00:03.000096",
        "meta_mean_motion": 15.42412633,
        "meta_eccentricity": 0.0001857,
        "meta_inclination": 53.1598,
        "meta_ra_of_asc_node": 304.8507,
        "meta_arg_of_pericenter": 85.08,
        "meta_mean_anomaly": 152.3974,
        "meta_ephemeris_type": 0,
        "meta_classification_type": "U",
        "meta_norad_cat_id": 66388,
        "meta_element_set_no": 999,
        "meta_rev_at_epoch": 511,
        "meta_bstar": -0.041362,
        "meta_mean_motion_dot": -0.01626728,
        "meta_mean_motion_ddot": 0,
        "tle_line1": "1 66388U 25257J   25338.16670139 -.01626728  00000+0 -41362-1 0  9996",
        "tle_line2": "2 66388  53.1598 304.8507 0001857  85.0800 152.3974 15.42412633  5112"
      },
      "geometry": {
        "type": "Point",
        "coordinates": [
          -40.52136149755094,
          20.16387266449049
        ]
      }
    },
    {
      "type": "Feature",
      "properties": {
        "norad_id": 66389,
        "name": "STARLINK-35694",
        "group": "last-30-days",
        "lat": 39.89227812746958,
        "lon": -17.751257803618874,
        "alt_km": 413.0659986787059,
        "timestamp": "2025-12-04T10:51:48.874896+00:00",
        "meta_object_name": "STARLINK-35694",
        "meta_object_id": "2025-257K",
        "meta_epoch": "2025-12-03T09:51:45.959040",
        "meta_mean_motion": 15.49244836,
        "meta_eccentricity": 0.00018355,
        "meta_inclination": 53.159,
        "meta_ra_of_asc_node": 308.4226,
        "meta_arg_of_pericenter": 114.7525,
        "meta_mean_anomaly": 245.3675,
        "meta_ephemeris_type": 0,
        "meta_classification_type": "U",
        "meta_norad_cat_id": 66389,
        "meta_element_set_no": 999,
        "meta_rev_at_epoch": 493,
        "meta_bstar": 0.00034877553,
        "meta_mean_motion_dot": 0.00018953,
        "meta_mean_motion_ddot": 0,
        "tle_line1": "1 66389U 25257K   25337.41094860  .00018953  00000+0  34878-3 0  9993",
        "tle_line2": "2 66389  53.1590 308.4226 0001835 114.7525 245.3675 15.49244836  4938"
      },
      "geometry": {
        "type": "Point",
        "coordinates": [
          -17.751257803618874,
          39.89227812746958
        ]
      }
    },
    {
      "type": "Feature",
      "properties": {
        "norad_id": 66390,
        "name": "STARLINK-35665",
        "group": "last-30-days",
        "lat": 53.09907436430364,
        "lon": 30.253606789857034,
        "alt_km": 410.2512717914551,
        "timestamp": "2025-12-04T10:51:48.874906+00:00",
        "meta_object_name": "STARLINK-35665",
        "meta_object_id": "2025-257L",
        "meta_epoch": "2025-12-04T04:17:33.642240",
        "meta_mean_motion": 15.49372608,
        "meta_eccentricity": 0.0001446,
        "meta_inclination": 53.1594,
        "meta_ra_of_asc_node": 304.6782,
        "meta_arg_of_pericenter": 95.09,
        "meta_mean_anomaly": 265.0274,
        "meta_ephemeris_type": 0,
        "meta_classification_type": "U",
        "meta_norad_cat_id": 66390,
        "meta_element_set_no": 999,
        "meta_rev_at_epoch": 515,
        "meta_bstar": 0.0022647,
        "meta_mean_motion_dot": 0.00127875,
        "meta_mean_motion_ddot": 0,
        "tle_line1": "1 66390U 25257L   25338.17886160  .00127875  00000+0  22647-2 0  9995",
        "tle_line2": "2 66390  53.1594 304.6782 0001446  95.0900 265.0274 15.49372608  5153"
      },
      "geometry": {
        "type": "Point",
        "coordinates": [
          30.253606789857034,
          53.09907436430364
        ]
      }
    },
    {
      "type": "Feature",
      "properties": {
        "norad_id": 66391,
        "name": "STARLINK-35656",
        "group": "last-30-days",
        "lat": 39.35447540307301,
        "lon": -18.629910648739717,
        "alt_km": 441.5112061776472,
        "timestamp": "2025-12-04T10:51:48.874917+00:00",
        "meta_object_name": "STARLINK-35656",
        "meta_object_id": "2025-257M",
        "meta_epoch": "2025-12-04T04:00:03.000096",
        "meta_mean_motion": 15.39797739,
        "meta_eccentricity": 0.0001426,
        "meta_inclination": 53.1599,
        "meta_ra_of_asc_node": 304.7785,
        "meta_arg_of_pericenter": 101.1321,
        "meta_mean_anomaly": 165.4827,
        "meta_ephemeris_type": 0,
        "meta_classification_type": "U",
        "meta_norad_cat_id": 66391,
        "meta_element_set_no": 999,
        "meta_rev_at_epoch": 521,
        "meta_bstar": -0.0086302,
        "meta_mean_motion_dot": -0.00332913,
        "meta_mean_motion_ddot": 0,
        "tle_line1": "1 66391U 25257M   25338.16670139 -.00332913  00000+0 -86302-2 0  9993",
        "tle_line2": "2 66391  53.1599 304.7785 0001426 101.1321 165.4827 15.39797739  5216"
      },
      "geometry": {
        "type": "Point",
        "coordinates": [
          -18.629910648739717,
          39.35447540307301
        ]
      }
    },
    {
      "type": "Feature",
      "properties": {
        "norad_id": 66392,
        "name": "STARLINK-35671",
        "group": "last-30-days",
        "lat": 21.966905027076095,
        "lon": -38.90583110992186,
        "alt_km": 440.9023758988096,
        "timestamp": "2025-12-04T10:51:48.874927+00:00",
        "meta_object_name": "STARLINK-35671",
        "meta_object_id": "2025-257N",
        "meta_epoch": "2025-12-04T04:00:03.000096",
        "meta_mean_motion": 15.42004992,
        "meta_eccentricity": 0.0001725,
        "meta_inclination": 53.1602,
        "meta_ra_of_asc_node": 304.8437,
        "meta_arg_of_pericenter": 86.3161,
        "meta_mean_anomaly": 154.0553,
        "meta_ephemeris_type": 0,
        "meta_classification_type": "U",
        "meta_norad_cat_id": 66392,
        "meta_element_set_no": 999,
        "meta_rev_at_epoch": 511,
        "meta_bstar": -0.051914,
        "meta_mean_motion_dot": -0.02002888,
        "meta_mean_motion_ddot": 0,
        "tle_line1": "1 66392U 25257N   25338.16670139 -.02002888  00000+0 -51914-1 0  9991",
        "tle_line2": "2 66392  53.1602 304.8437 0001725  86.3161 154.0553 15.42004992  5110"
      },
      "geometry": {
        "type": "Point",
        "coordinates": [
          -38.90583110992186,
          21.966905027076095
        ]
      }
    }
  ]
}